STARLINK-30095          
1 56289U 23056D   23121.25001157  .00134246  00000+0  82676-3 0  9997
2 56289  43.0014 132.0063 0000608 280.2241  37.5571 15.76024391  2325
STARLINK-30103          
1 56290U 23056E   23121.25001157 -.01228200  00000+0 -19010-1 0  9996
2 56290  43.0018 132.7207 0001290 271.7223 117.4743 15.55819115  2312
STARLINK-30113          
1 56291U 23056F   23121.25001157 -.01228579  00000+0 -19002-1 0  9997
2 56291  43.0018 132.7188 0001263 273.4168 116.5094 15.55839665  2319
STARLINK-30098          
1 56292U 23056G   23121.25001157 -.01231251  00000+0 -19026-1 0  9995
2 56292  43.0018 132.7162 0001272 274.7139 116.3081 15.55869598  2316
STARLINK-30090          
1 56293U 23056H   23120.91667824 -.01143744  00000+0 -17297-1 0  9994
2 56293  43.0020 134.6806 0001474 263.5360  57.3559 15.56683670  2266
STARLINK-30049          
1 56294U 23056J   23121.25001157 -.00676633  00000+0 -87653-2 0  9995
2 56294  43.0018 132.6452 0001350 269.0447 151.0011 15.60246144  2316
STARLINK-30083          
1 56295U 23056K   23120.66667824  .00142021  00000+0  86468-3 0  9990
2 56295  43.0019 135.5330 0000794 285.7841 324.0521 15.76259186  2235
STARLINK-30089          
1 56296U 23056L   23121.25001157  .00173624  00000+0  98453-3 0  9998
2 56296  43.0010 131.9313 0000300 194.1302 153.6505 15.77761605  2329
STARLINK-30086          
1 56297U 23056M   23121.25001157 -.00676222  00000+0 -87452-2 0  9999
2 56297  43.0020 132.6410 0001367 263.8824 157.9297 15.60288350  2311
STARLINK-30109          
1 56298U 23056N   23120.58334491 -.00676174  00000+0 -84390-2 0  9999
2 56298  43.0022 136.6010 0001424 266.2291   4.3151 15.61204538  1302
STARLINK-30108          
1 56299U 23056P   23121.25001157  .00115266  00000+0  96748-3 0  9994
2 56299  43.0022 132.4457 0001399 267.7932 233.3140 15.68814361  2324
STARLINK-30104          
1 56300U 23056Q   23121.25001157 -.01076082  00000+0 -16608-1 0  9997
2 56300  43.0007 132.7077 0001498 269.5968 125.3177 15.55973523  2311
STARLINK-30101          
1 56301U 23056R   23120.91667824 -.01143486  00000+0 -17173-1 0  9990
2 56301  43.0024 134.6700 0001474 266.9683  58.3210 15.56868148  2268
STARLINK-30111          
1 56302U 23056S   23120.58334491 -.00677106  00000+0 -84313-2 0  9996
2 56302  43.0024 136.5952 0001407 267.0862   5.7497 15.61266455  1302
STARLINK-30097          
1 56303U 23056T   23120.58334491 -.00675778  00000+0 -84165-2 0  9995
2 56303  43.0024 136.5962 0001385 269.7285   2.7807 15.61257043  1302
STARLINK-30099          
1 56304U 23056U   23121.25001157 -.01406861  00000+0 -21612-1 0  9994
2 56304  43.0021 132.6977 0000424 278.0341 120.8445 15.56405649  2315
STARLINK-30094          
1 56305U 23056V   23120.58334491 -.00677108  00000+0 -84231-2 0  9990
2 56305  43.0024 136.5924 0001431 270.1133   3.7290 15.61291298  1309
STARLINK-30112          
1 56306U 23056W   23120.58334491 -.00677503  00000+0 -84341-2 0  9992
2 56306  43.0023 136.5944 0001452 271.2809   1.9065 15.61273893  1307
2023-057A               
1 56308U 23057A   23120.65934923  .00000660  00000+0  00000+0 0  9998
2 56308   9.8876 249.8654 0022971 338.7522  21.1845 14.88284031  1237
2023-057B               
1 56309U 23057B   23120.57181997  .00000689  00000+0  00000+0 0  9996
2 56309   9.9932 250.0395 0011048  86.0628   2.1118 14.95022055  1226
2023-057C               
1 56310U 23057C   23120.57759956  .00000680  00000+0  00000+0 0  9995
2 56310   9.9865 250.0495 0005923  92.5685   7.1081 14.94354240  1221
ARKSAT 1                
1 56311U 98067VC  23120.54008574  .00046698  00000+0  77195-3 0  9991
2 56311  51.6391 204.6178 0007846 290.1170  69.8975 15.51719860   957
AURORASAT               
1 56312U 98067VD  23120.54014869  .00047588  00000+0  78669-3 0  9992
2 56312  51.6390 204.6180 0007784 289.7500  70.2650 15.51711180   988
EX-ALTA-2               
1 56313U 98067VE  23120.54022682  .00046723  00000+0  77331-3 0  9990
2 56313  51.6390 204.6185 0007729 289.3904  70.6250 15.51686434   979
LIGHTCUBE               
1 56314U 98067VF  23121.18500239  .00055512  00000+0  91876-3 0  9997
2 56314  51.6386 201.4254 0007721 276.7447  83.2664 15.51611728  1100
NEUDOSE                 
1 56315U 98067VG  23120.79889652  .00036206  00000+0  60837-3 0  9995
2 56315  51.6388 203.3454 0007886 273.3234  86.6853 15.51379319   995
YUKONSAT                
1 56316U 98067VH  23120.67004266  .00043880  00000+0  73408-3 0  9997
2 56316  51.6390 203.9852 0007765 273.0859  86.9241 15.51413471   995
2023-059A               
1 56367U 23059A   23120.51372977  .00000048  00000+0  00000+0 0  9995
2 56367   8.5993  20.3727 1878039 184.9357 172.9286  7.26274931   148
2023-059B               
1 56368U 23059B   23120.51349147  .00000048  00000+0  00000+0 0  9999
2 56368   8.6014  20.3944 1879290 184.9198 172.9529  7.26396851   122
2023-059C               
1 56369U 23059C   23120.51284503  .00000048  00000+0  00000+0 0  9994
2 56369   8.5980  20.3838 1880508 185.0193 172.8089  7.26704352   115
